#aV2016  5 11  0  0  0.00000000     288 DD+AD WGS84 FIT  NGA
## 1896 259200.00000000   300.00000000 57519 0.0000000000000
+   31     1  2  3  5  6  7  8  9 10 11 12 13 14 15 16 17 18
+         19 20 21 22 23 24 25 26 27 28 29 30 31 32  0  0  0
+          0  0  0  0  0  0  0  0  0  0  0  0  0  0  0  0  0
+          0  0  0  0  0  0  0  0  0  0  0  0  0  0  0  0  0
+          0  0  0  0  0  0  0  0  0  0  0  0  0  0  0  0  0
++         2  2  2  2  2  2  2  2  2  2  2  2  2  2  2  2  2
++         2  2  2  2  2  2  2  2  2  2  2  2  2  2  0  0  0
++         0  0  0  0  0  0  0  0  0  0  0  0  0  0  0  0  0
++         0  0  0  0  0  0  0  0  0  0  0  0  0  0  0  0  0
++         0  0  0  0  0  0  0  0  0  0  0  0  0  0  0  0  0
%c cc cc ccc ccc cccc cccc cccc cccc ccccc ccccc ccccc ccccc
%c cc cc ccc ccc cccc cccc cccc cccc ccccc ccccc ccccc ccccc
%f  0.0000000  0.000000000  0.00000000000  0.000000000000000
%f  0.0000000  0.000000000  0.00000000000  0.000000000000000
%i    0    0    0    0      0      0      0      0         0
%i    0    0    0    0      0      0      0      0         0
/*      NGA, ST. LOUIS,MO.                                  
/*   EPHEMERIS COMPUTED FROM 2 DAYS OF DATA                 
/*   EPOCHA v2.4 SMOOTHER                                   
/*   G1762 IERS2010 SATAF SATAPC                            
*  2016  5 11 18 15  0.00000000
P  1   4775.087049 -17504.517092 -19391.249026     20.063273                    
V  1  22493.010060  -9872.440108  14737.540815      0.011978                    
P  2 -21196.730598  15249.759998   3937.653244    592.407349                    
V  2  -5735.822631   -929.954337 -31073.959044     -0.021348                    
P  3  -6665.149409 -18869.509274 -17454.254274    -56.675697                    
V  3  19573.088675  10580.917316 -18910.010784     -0.038079                    
P  5 -13222.576996   9520.311282  20942.297744   -121.685370                    
V  5 -22298.801573 -14809.403273  -7126.189506      0.030748                    
P  6 -24039.806849   4263.718333 -10447.959857    188.738822                    
V  6  10699.298266  -8225.812083 -27932.943233      0.055254                    
P  7 -12381.324893 -10344.053818  21301.147703    455.185122                    
V  7  23781.512534 -12017.100095   7641.289224     -0.021982                    
P  8   6285.152511 -24673.835097   7545.393014    -34.740172                    
V  8   2189.906948   9619.161455  29870.498044     -0.014491                    
P  9  -8415.231449 -21463.605175  13156.273603    127.118137                    
V  9   3086.711798 -16637.566255 -25154.829371      0.073428                    
P 10  23852.988826   9494.170095  -6919.871282    -19.895168                    
V 10   5974.229956   6990.220914  30034.454845     -0.091103                    
P 11   6456.838514 -22657.186960 -12780.763071   -646.485373                    
V 11  13103.651801  -9187.800934  23997.342600     -0.014438                    
P 12   2888.116955  17929.321690 -19592.529458    379.346068                    
V 12 -20266.902266 -13692.679503 -15411.061191      0.012414                    
P 13 -12347.085824  19372.202532  13279.109015    -17.126773                    
V 13    831.480086 -17109.841946  25397.725304     -0.026384                    
P 14  14859.099115   2199.145892 -21653.958149    -13.268189                    
V 14  -3464.955667  27876.032218    292.438991     -0.021061                    
P 15  -3010.770116  25804.355972   4416.471547   -310.433415                    
V 15  -4046.456013  -5800.006078  30624.114700     -0.016799                    
P 16  13999.135348  -7036.499134  21413.068793    -18.309056                    
V 16  21621.387025  16623.413907  -8254.469601      0.026139                    
P 17 -13833.909799  -6794.840275 -21327.468612   -203.663894                    
V 17   3050.507454 -27620.690674   6539.497712     -0.000987                    
P 18  20169.040870  16815.595084   5359.244780    514.464859                    
V 18  -7071.565861   -121.684220  29788.760828      0.042066                    
P 19 -15396.113413   5166.762590 -21325.956131   -525.698098                    
V 19   3331.804560 -26202.686908  -8485.559740      0.000326                    
P 20   3196.495610  17982.503769  19120.172257    411.577878                    
V 20 -22653.198636 -10090.000657  13218.933377      0.023803                    
P 21  15758.672213   8516.565882  20433.472655   -522.300101                    
V 21 -20843.575494  12592.556658  10998.525155     -0.013114                    
P 22   3488.349356 -16090.312312 -20586.546310    344.564495                    
V 22  23483.987196  13066.492655  -6290.614969     -0.080351                    
P 23  -1912.932375 -25920.244308   4338.894111   -173.326583                    
V 23   3815.012830  -5186.609995 -31070.792232     -0.016729                    
P 24  -7970.406767  18450.838035 -17322.910940    -16.879013                    
V 24 -20272.392018   8755.858092  18907.956537     -0.005455                    
P 25  14621.973863  18951.220393 -11845.019411   -169.512226                    
V 25 -13323.470420  -6556.775738 -27032.532656     -0.070530                    
P 26  21161.150215    109.995917  16077.220094   -360.750157                    
V 26  16221.472849  12521.532184 -21380.623291     -0.125428                    
P 27  11923.392543 -17104.278062  16321.776484     91.423041                    
V 27    839.440518  20884.554134  21396.643562      0.040375                    
P 28 -22555.799248 -12785.882944  -5230.346734    522.311534                    
V 28  -4763.549477  -6010.538975  31434.714680      0.026895                    
P 29   4888.040312  23765.414445  10868.390322    657.180793                    
V 29  -3371.863807  13468.901143 -27912.897698      0.000005                    
P 30 -20497.705122  -3931.435160  16471.882336    124.384331                    
V 30  18440.755576 -10072.089947  20434.057815      0.031501                    
P 31  24900.533904  -6078.784476  -7546.904916    269.500255                    
V 31  -7807.507296   5980.044961 -29814.812187     -0.018602                    
P 32  14978.626195   3717.524531 -21608.793605     -4.619225                    
V 32  -1499.376579  27419.859184   3665.261352     -0.055360                    
EOF
